BEIDOU-2 IGSO-1 (C06)   
1 36828U 10036A   26163.92768963 -.00000036  00000+0  00000+0 0  9993
2 36828  54.3022 162.9989 0059221 225.0163 314.8655  1.00272965 58059
BEIDOU-2 G4 (C04)       
1 37210U 10057A   26164.06993332 -.00000102  00000+0  00000+0 0  9992
2 37210   3.6352  68.9726 0005150 197.4058 180.1990  1.00271104 57250
BEIDOU-2 IGSO-2 (C07)   
1 37256U 10068A   26162.63123517 -.00000226  00000+0  00000+0 0  9992
2 37256  47.5583 271.9034 0055443 212.3317 110.6962  1.00285295 56731
BEIDOU-2 IGSO-3 (C08)   
1 37384U 11013A   26161.71639865 -.00000195  00000+0  00000+0 0  9996
2 37384  62.3981  40.2143 0034353 184.2630  40.3873  1.00268972 55596
BEIDOU-2 IGSO-4 (C09)   
1 37763U 11038A   26162.98219539  .00000090  00000+0  00000+0 0  9999
2 37763  54.5997 165.7200 0159351 231.3459 310.0324  1.00285652 54594
BEIDOU-2 IGSO-5 (C10)   
1 37948U 11073A   26163.78189384 -.00000165  00000+0  00000+0 0  9990
2 37948  47.6870 271.6014 0113781 221.6023 141.1385  1.00273641 53097
BEIDOU-2 G5 (C05)       
1 38091U 12008A   26163.98935588  .00000068  00000+0  00000+0 0  9997
2 38091   3.5618  69.7250 0009172 273.6885 332.7240  1.00270831 52328
BEIDOU-2 M3 (C11)       
1 38250U 12018A   26163.35604823 -.00000069  00000+0  00000+0 0  9993
2 38250  55.7625 305.0387 0020082 274.1889  85.5633  1.86229921 95854
BEIDOU-2 M4 (C12)       
1 38251U 12018B   26163.82529677 -.00000069  00000+0  00000+0 0  9999
2 38251  55.6622 304.2372 0011279 276.2028  83.6498  1.86229596 95869
BEIDOU-2 M6 (C14)       
1 38775U 12050B   26164.07202103 -.00000056  00000+0  00000+0 0  9992
2 38775  56.5408  63.0305 0013772 356.7295   3.2873  1.86230840 93236
BEIDOU-2 G6 (C02)       
1 38953U 12059A   26163.85175780 -.00000165  00000+0  00000+0 0  9995
2 38953   4.4090  73.5707 0009723 324.5872 253.6772  1.00273022 49864
BEIDOU-3S IGSO-1S (C31) 
1 40549U 15019A   26163.85297113 -.00000181  00000+0  00000+0 0  9991
2 40549  49.2042 295.5153 0038892 190.7649 173.7832  1.00251378 41037
BEIDOU-3S M2S (C58)     
1 40748U 15037A   26162.95383127 -.00000067  00000+0  00000+0 0  9996
2 40748  54.8763 302.2271 0008107 260.4209  99.4710  1.86232251 74027
BEIDOU-3S M1S (C57)     
1 40749U 15037B   26164.23564090 -.00000069  00000+0  00000+0 0  9992
2 40749  54.8712 302.1701 0003517  61.4306 298.5865  1.86254754 74054
BEIDOU-3S IGSO-2S (C56) 
1 40938U 15053A   26163.74469534 -.00000142  00000+0  00000+0 0  9994
2 40938  49.2285 258.8368 0065649 191.9676 173.7648  1.00260456 39311
BEIDOU-2 IGSO-6 (C13)   
1 41434U 16021A   26162.98515472 -.00000157  00000+0  00000+0 0  9996
2 41434  60.2181  38.0924 0057076 231.5598  78.5171  1.00260204 37420
BEIDOU-2 G7 (C03)       
1 41586U 16037A   26164.28472978 -.00000341  00000+0  00000+0 0  9994
2 41586   1.7089  69.2879 0006868   3.8389  41.4450  1.00265803  6853
BEIDOU-3 M1 (C19)       
1 43001U 17069A   26161.15259502 -.00000050  00000+0  00000+0 0  9990
2 43001  56.6854  63.3171 0010600 324.5878  35.3649  1.86231422 58472
BEIDOU-3 M2 (C20)       
1 43002U 17069B   26163.77611076 -.00000055  00000+0  00000+0 0  9994
2 43002  56.6872  63.2666 0009220 350.0125   9.9939  1.86230859 58513
BEIDOU-3 M7 (C27)       
1 43107U 18003A   26163.51786711 -.00000069  00000+0  00000+0 0  9995
2 43107  54.3326 302.4785 0004908  93.1066 266.9324  1.86228217 57264
BEIDOU-3 M8 (C28)       
1 43108U 18003B   26162.92575939 -.00000068  00000+0  00000+0 0  9997
2 43108  54.3258 302.4809 0002464 263.1764  96.7794  1.86231100 57260
BEIDOU-3 M4 (C22)       
1 43207U 18018A   26160.14697391 -.00000046  00000+0  00000+0 0  9998
2 43207  56.6431  63.4146 0007688  17.0743 342.9760  1.86231351 56594
BEIDOU-3 M3 (C21)       
1 43208U 18018B   26163.97214358 -.00000055  00000+0  00000+0 0  9991
2 43208  56.6466  63.2922 0008703 341.1081  18.8849  1.86231082 56664
BEIDOU-3 M9 (C29)       
1 43245U 18029A   26163.65297359 -.00000068  00000+0  00000+0 0  9995
2 43245  54.1986 300.1083 0000893 146.7724 213.2166  1.86228237 55818
BEIDOU-3 M10 (C30)      
1 43246U 18029B   26163.58735657 -.00000068  00000+0  00000+0 0  9996
2 43246  54.1961 300.1366 0003902  39.2234 320.7882  1.86229309 55799
BEIDOU-2 IGSO-7 (C16)   
1 43539U 18057A   26163.92794963  .00000023  00000+0  00000+0 0  9995
2 43539  55.1944 163.0954 0104897 237.8995 304.6030  1.00252210 29082
BEIDOU-3 M5 (C23)       
1 43581U 18062A   26163.27453200  .00000125  00000+0  00000+0 0  9995
2 43581  54.0853 182.4712 0005548 288.5398  71.4632  1.86228535 53548
BEIDOU-3 M6 (C24)       
1 43582U 18062B   26163.67493906  .00000122  00000+0  00000+0 0  9994
2 43582  54.0851 182.4468 0004877   9.6750 350.3966  1.86227626 53553
BEIDOU-3 M12 (C26)      
1 43602U 18067A   26163.61333926  .00000122  00000+0  00000+0 0  9991
2 43602  54.1800 181.1956 0007719  30.1109 329.9936  1.86227819 53030
BEIDOU-3 M11 (C25)      
1 43603U 18067B   26163.74839059  .00000121  00000+0  00000+0 0  9993
2 43603  54.1775 181.1545 0004426  13.3821 346.6892  1.86227237 53066
BEIDOU-3 M13 (C32)      
1 43622U 18072A   26163.70322392 -.00000056  00000+0  00000+0 0  9991
2 43622  56.6206  62.8082 0007415 327.4825  32.4971  1.86231472 52577
BEIDOU-3 M14 (C33)      
1 43623U 18072B   26164.10562094 -.00000056  00000+0  00000+0 0  9992
2 43623  56.6226  62.7894 0006152 359.0160   1.0091  1.86231430 52579
BEIDOU-3 M16 (C35)      
1 43647U 18078A   26164.26100383 -.00000068  00000+0  00000+0 0  9993
2 43647  54.0937 300.1237 0007232  40.8705 319.1665  1.86232176 52080
BEIDOU-3 M15 (C34)      
1 43648U 18078B   26163.85334519 -.00000068  00000+0  00000+0 0  9998
2 43648  54.0899 300.1384 0004241  57.4924 302.5317  1.86232293 52096
BEIDOU-3 G1 (C59)       
1 43683U 18085A   26164.22326106 -.00000098  00000+0  00000+0 0  9993
2 43683   2.8568  97.4977 0008158 348.6556  55.7326  1.00270668 28027
BEIDOU-3 M17 (C36)      
1 43706U 18093A   26161.46407593  .00000127  00000+0  00000+0 0  9993
2 43706  54.1687 182.5246 0010075 291.4418 158.4113  1.86228347 51418
BEIDOU-3 M18 (C37)      
1 43707U 18093B   26163.34119720  .00000125  00000+0  00000+0 0  9993
2 43707  54.1696 182.4530 0007900 320.5201  39.4855  1.86226356 51443
BEIDOU-3 IGSO-1 (C38)   
1 44204U 19023A   26157.95428288 -.00000215  00000+0  00000+0 0  9993
2 44204  58.6799  37.7569 0025434 225.6649  92.8731  1.00294886  7105
BEIDOU-2 G8 (C01)       
1 44231U 19027A   26164.29148980 -.00000236  00000+0  00000+0 0  9993
2 44231   1.6467  74.5020 0010279 282.5550 154.0328  1.00272151 26048
BEIDOU-3 IGSO-2 (C39)   
1 44337U 19035A   26162.98574688 -.00000041  00000+0  00000+0 0  9995
2 44337  55.2458 158.9084 0039925 216.2500 359.8397  1.00267954 25613
BEIDOU-3 M24 (C46)      
1 44542U 19061A   26162.33598668  .00000129  00000+0  00000+0 0  9991
2 44542  54.3962 182.9254 0008267 358.9131   1.1499  1.86229258 45684
BEIDOU-3 M23 (C45)      
1 44543U 19061B   26164.21236242  .00000117  00000+0  00000+0 0  9995
2 44543  54.3947 182.8303 0005580 337.9862 111.7077  1.86227312 45729
BEIDOU-3 IGSO-3 (C40)   
1 44709U 19073A   26136.81046384 -.00000217  00000+0  00000+0 0  9995
2 44709  54.8566 281.2355 0042953 189.4588 170.3676  1.00246251 24144
BEIDOU-3 M22 (C44)      
1 44793U 19078A   26163.78655904 -.00000068  00000+0  00000+0 0  9997
2 44793  53.9403 299.9835 0006462  50.1486 309.8916  1.86227395 44568
BEIDOU-3 M21 (C43)      
1 44794U 19078B   26163.38953000 -.00000068  00000+0  00000+0 0  9992
2 44794  53.9139 299.9585 0004324  48.1956 311.8252  1.86227878 44563
BEIDOU-3 M19 (C41)      
1 44864U 19090A   26163.79821794 -.00000056  00000+0  00000+0 0  9990
2 44864  56.5546  62.9362 0017894 297.9267 173.3886  1.86231512 44157
BEIDOU-3 M20 (C42)      
1 44865U 19090B   26164.31062743 -.00000055  00000+0  00000+0 0  9990
2 44865  56.5565  62.9542 0015745 311.9209 232.5278  1.86231453 44141
BEIDOU-3 G2 (C60)       
1 45344U 20017A   26164.06485377 -.00000130  00000+0  00000+0 0  9992
2 45344   2.8546  47.2727 0002189  32.7659 284.7664  1.00272615 23217
BEIDOU-3 G3 (C61)       
1 45807U 20040A   26164.28472978 -.00000343  00000+0  00000+0 0  9995
2 45807   2.4362  67.4406 0002503 336.7928  70.4276  1.00268740 22039
BEIDOU-3 G4 (C62)       
1 56564U 23066A   26164.29062314 -.00000268  00000+0  00000+0 0  9994
2 56564   0.4916 330.4029 0004290 181.8988 353.9188  1.00275055 11359
BEIDOU-3 M28 (C50)      
1 58654U 23207A   26164.00359830 -.00000057  00000+0  00000+0 0  9990
2 58654  55.7492  62.4443 0003374 346.0621  13.9544  1.86229633 16760
BEIDOU-3 M26 (C48)      
1 58655U 23207B   26161.11630189 -.00000052  00000+0  00000+0 0  9994
2 58655  55.7488  62.5282 0003349 318.7202  41.2779  1.86229681 16690
BEIDOU-3 M25 (C47)      
1 61186U 24168B   26163.83690193 -.00000069  00000+0  00000+0 0  9994
2 61186  54.4778 302.3939 0003000 301.8949 199.4569  1.86229830 11706
BEIDOU-3 M27 (C49)      
1 61187U 24168C   26163.68788537 -.00000069  00000+0  00000+0 0  9998
2 61187  54.4733 302.3821 0001607  50.3873 126.0836  1.86229911  9172
